#aV2007  3 29  0  0   .00000000      96 DD+AD WGS84 FIT  NGA
## 1420 345600.00000000   900.00000000 54188  .0000000000000
+   30     1  2  3  4  5  6  7  8  9 10 11 12 13 14 16 17 18
+         19 20 21 22 23 24 25 26 27 28 29 30 31  0  0  0  0
+          0  0  0  0  0  0  0  0  0  0  0  0  0  0  0  0  0
+          0  0  0  0  0  0  0  0  0  0  0  0  0  0  0  0  0
+          0  0  0  0  0  0  0  0  0  0  0  0  0  0  0  0  0
++         0  0  0  0  0  0  0  0  0  0  0  0  0  0  0  0  0
++         0  0  0  0  0  0  0  0  0  0  0  0  0  0  0  0  0
++         0  0  0  0  0  0  0  0  0  0  0  0  0  0  0  0  0
++         0  0  0  0  0  0  0  0  0  0  0  0  0  0  0  0  0
++         0  0  0  0  0  0  0  0  0  0  0  0  0  0  0  0  0
%c cc cc ccc ccc cccc cccc cccc cccc ccccc ccccc ccccc ccccc
%c cc cc ccc ccc cccc cccc cccc cccc ccccc ccccc ccccc ccccc
%f  0.0000000  0.000000000  0.00000000000  0.000000000000000
%f  0.0000000  0.000000000  0.00000000000  0.000000000000000
%i    0    0    0    0      0      0      0      0         0
%i    0    0    0    0      0      0      0      0         0
/*      NGA, ST. LOUIS,MO.                                  
/*   EPHEMERIS COMPUTED FROM  3 DAYS OF DATA                
/* CCCCCCCCCCCCCCCCCCCCCCCCCCCCCCCCCCCCCCCCCCCCCCCCCCCCCCCCC
/* CCCCCCCCCCCCCCCCCCCCCCCCCCCCCCCCCCCCCCCCCCCCCCCCCCCCCCCCC
*  2007  3 29 13 30   .00000000                                                 
P  1    281.169299  14990.532143  22124.273512    116.802506                    
V  1 -26574.436909   7152.592915  -4609.258817       .024134                    
P  2 -10979.233873 -21083.418497  11891.840627     94.424743                    
V  2  13254.199321   8226.705182  26055.935568       .032192                    
P  3   5481.627346  15109.072168 -21339.927141     34.805654                    
V  3 -24605.967354  10560.882058   1500.603250       .055611                    
P  4   2998.322456 -16907.764436  20104.570111      9.244158                    
V  4  19951.526325  16451.425110  11180.779534       .009313                    
P  5 -14844.821970  -5654.878588  21071.748723     40.460627                    
V  5   3677.969368 -27112.952030  -4482.677215      -.035004                    
P  6 -25501.845031   4731.194048   6032.452289    114.119385                    
V  6   5773.391790  -5826.955907  29853.879927       .203188                    
P  7 -25126.233305   8601.578557   1879.773023    366.153634                    
V  7    529.346553  -4009.262112  31016.029617      -.145172                    
P  8  12238.053370  -8814.946138 -22004.527489   -101.745677                    
V  8  19739.531602  19265.156841   2854.546203      -.014860                    
P  9 -21501.240525 -15510.974725   2439.402090     63.684627                    
V  9  -1316.732834  -4362.125358 -31497.968618       .016950                    
P 10  -2651.814639 -23645.962082 -11565.205596     99.506582                    
V 10   5609.505795 -13703.102813  27309.842811       .005567                    
P 11  23799.221685  11547.283150   3623.090448     11.694086                    
V 11   1577.419759   6393.919822 -29569.763159       .011975                    
P 12 -13347.556178  -8903.065940  21284.732814    -44.086197                    
V 12   5942.679738 -26098.362441  -7176.993974       .002611                    
P 13  25699.798161  -6306.348030   1851.643078    157.873199                    
V 13  -1862.803060   2405.682163  32402.665355       .037547                    
P 14 -16108.938328  15159.755276  14734.079878     13.604246                    
V 14 -18141.139046   4093.447239 -24244.294325       .015522                    
P 16  -1758.309209  25822.898675  -5531.151187    135.144419                    
V 16  -4260.714520   6391.764288  30855.486828       .033260                    
P 17  17340.311888 -15233.215129  13035.169764     73.559733                    
V 17  16509.008139  -2889.771125 -25472.076876      -.013858                    
P 18 -15620.364501  12727.806405 -17002.981669   -252.463814                    
V 18   3303.394120 -21847.051955 -19559.310537       .004875                    
P 19  14877.159586  10216.849827 -19424.152354     19.495175                    
V 19 -23719.811566   7514.933520 -14039.681515       .038059                    
P 20  13943.979761   7395.978660  21262.738017    -23.237427                    
V 20  -5717.397449  26660.926931  -5454.565126      -.002938                    
P 21 -18203.804037   2157.771955 -19299.407753     74.412559                    
V 21 -16997.616944 -17869.583527  13392.917849       .007111                    
P 22 -11755.025133  22315.292319  -8135.421959    174.254960                    
V 22   -206.423874 -10956.792140 -29232.385063       .014796                    
P 23  23678.548076    892.127488  12114.362897    156.993805                    
V 23 -14019.946168   6719.895824  26538.561004       .021048                    
P 24 -21531.796443  -9708.530853 -11639.023452     88.625230                    
V 24  -8886.783695 -12660.758837  26818.071700       .030300                    
P 25  19391.377042  17681.402564   3983.119589    268.957658                    
V 25  -5442.158946   -344.808613  31260.459733      -.245827                    
P 26 -13024.736685 -10568.090744 -21165.347384   -113.593245                    
V 26  24548.019567  -7501.980471 -11036.286714      -.195253                    
P 27  18788.906700  -1338.282837 -18182.925947    102.001175                    
V 27  18206.926208  16207.687402  16784.903048       .021249                    
P 28  12875.420721 -19691.240765 -11645.845540      4.354551                    
V 28   -821.319786  15642.047224 -26949.483204      -.008781                    
P 29  -8421.836969 -12307.003776 -21799.105945      1.002561                    
V 29  26588.213353  -9022.708546  -4776.353431       .005428                    
P 30 -15784.924746   3978.682515  20662.894504     29.500374                    
V 30   3576.829196 -26791.569895   7890.397923       .011692                    
P 31   -692.506139  17850.380852  19836.001514     17.811948                    
V 31 -19355.653741 -15499.052546  13473.184896       .014895                    
EOF
